SatCatId,ObjectName,LaunchYear,OrbitalPeriod,LaunchMass,StatusCode,Inclination,Status,UcsData,OrbitClassEstimated,LaunchSiteCountry,Owner,UseType,Purpose,LaunchVehicleClass,TLE1,TLE2,MeanMotion,Eccentricity,OrbitClass
58849,OBJECT A,2024,100.12,-1.0,+,58.69,Active,0,LEO,Iran,Iran,Unknown,Unknown,Unknown,1 58849U 24018A   25306.52759042  .00001886  00000+0  22819-3 0  9996,2 58849  58.6886 303.2865 0433563 197.6916 160.8604 14.38261158 92552,14.38261158,0.0433563,LEO
58850,OBJECT B,2024,99.87,-1.0,+,58.7,Active,0,LEO,Iran,Iran,Unknown,Unknown,Unknown,1 58850U 24018B   25306.52483615  .00002660  00000+0  30143-3 0  9998,2 58850  58.6954 296.1739 0418995 199.4210 159.0438 14.41889883 92683,14.41889883,0.0418995,LEO
58851,OBJECT C,2024,100.02,-1.0,+,58.69,Active,0,LEO,Iran,Iran,Unknown,Unknown,Unknown,1 58851U 24018C   25306.51348068  .00002175  00000+0  25765-3 0  9995,2 58851  58.6857 298.7461 0426661 199.3264 159.1152 14.39670155 92639,14.39670155,0.0426661,LEO
58853,STARLINK-31238,2024,94.27,-1.0,+,43.01,Active,0,LEO,USA,USA,Unknown,Unknown,Unknown,1 58853U 24019A   25306.11215270  .00001400  00000+0  60409-4 0  9997,2 58853  43.0088 249.1860 0001655 273.4414  86.6249 15.27584619 99579,15.27584619,0.0001655,LEO
58854,STARLINK-31158,2024,94.27,-1.0,+,43.0,Active,0,LEO,USA,USA,Unknown,Unknown,Unknown,1 58854U 24019B   25306.13398418  .00001248  00000+0  54853-4 0  9992,2 58854  43.0010 249.3545 0001573 275.0117  85.0555 15.27588661 99578,15.27588661,0.0001573,LEO
58855,STARLINK-31237,2024,94.27,-1.0,+,43.01,Active,0,LEO,USA,USA,Unknown,Unknown,Unknown,1 58855U 24019C   25305.91087265  .00000742  00000+0  36500-4 0  9990,2 58855  43.0073 250.2842 0001131 263.9299  96.1424 15.27565163 99543,15.27565163,0.0001131,LEO
58856,STARLINK-31244,2024,94.27,-1.0,+,43.0,Active,0,LEO,USA,USA,Unknown,Unknown,Unknown,1 58856U 24019D   25306.12372386 -.00001329  00000+0 -38731-4 0  9998,2 58856  43.0001 249.2829 0004153 112.3019 247.8273 15.27577095 99579,15.27577095,0.0004153,LEO
58858,STARLINK-31226,2024,94.27,-1.0,+,43.0,Active,0,LEO,USA,USA,Unknown,Unknown,Unknown,1 58858U 24019F   25306.13914962  .00004204  00000+0  16218-3 0  9991,2 58858  42.9997 249.3925 0001663 273.5463  86.5198 15.27581823 99575,15.27581823,0.0001663,LEO
58859,STARLINK-31197,2024,94.27,-1.0,+,43.0,Active,0,LEO,USA,USA,Unknown,Unknown,Unknown,1 58859U 24019G   25306.15071282 -.00000673  00000+0 -14942-4 0  9994,2 58859  43.0029 249.4842 0001468 282.3493  77.7194 15.27575759 99576,15.27575759,0.0001468,LEO
58860,STARLINK-31213,2024,94.27,-1.0,+,43.0,Active,0,LEO,USA,USA,Unknown,Unknown,Unknown,1 58860U 24019H   25306.12502176 -.00002939  00000+0 -97360-4 0  9996,2 58860  43.0033 249.2924 0001451 262.7067  97.3620 15.27561072 99578,15.27561072,0.0001451,LEO
58861,STARLINK-31199,2024,94.27,-1.0,+,43.0,Active,0,LEO,USA,USA,Unknown,Unknown,Unknown,1 58861U 24019J   25306.12115737  .00000892  00000+0  41932-4 0  9998,2 58861  43.0027 249.2636 0001672 272.2159  87.8501 15.27573018 99570,15.27573018,0.0001672,LEO
58862,STARLINK-31200,2024,94.27,-1.0,+,43.0,Active,0,LEO,USA,USA,Unknown,Unknown,Unknown,1 58862U 24019K   25306.12244029  .00003068  00000+0  12097-3 0  9993,2 58862  43.0025 249.2706 0001623 271.0934  88.9732 15.27580992 99578,15.27580992,0.0001623,LEO
58863,STARLINK-31149,2024,94.27,-1.0,+,43.0,Active,0,LEO,USA,USA,Unknown,Unknown,Unknown,1 58863U 24019L   25305.89930203  .00000741  00000+0  36472-4 0  9992,2 58863  43.0038 250.1828 0001157 257.8970 102.1752 15.27564964 99542,15.27564964,0.0001157,LEO
58864,STARLINK-31242,2024,94.27,-1.0,+,43.0,Active,0,LEO,USA,USA,Unknown,Unknown,Unknown,1 58864U 24019M   25306.12887477  .00015453  00000+0  56988-3 0  9993,2 58864  42.9990 249.3230 0000520 224.8665 135.2144 15.27580207 99576,15.27580207,5.2e-05,LEO
58865,STARLINK-31223,2024,94.27,-1.0,+,43.0,Active,0,LEO,USA,USA,Unknown,Unknown,Unknown,1 58865U 24019N   25306.13013296  .00007599  00000+0  28546-3 0  9996,2 58865  43.0015 249.3377 0000507 293.9174  66.1625 15.27571220 99555,15.2757122,5.07e-05,LEO
58866,STARLINK-31219,2024,94.27,-1.0,+,43.0,Active,0,LEO,USA,USA,Unknown,Unknown,Unknown,1 58866U 24019P   25305.90958429  .00009802  00000+0  36531-3 0  9999,2 58866  43.0011 250.2583 0001152 258.3692 101.7030 15.27572842 99523,15.27572842,0.0001152,LEO
58867,STARLINK-31198,2024,94.27,-1.0,+,43.01,Active,0,LEO,USA,USA,Unknown,Unknown,Unknown,1 58867U 24019Q   25305.91857794  .00000900  00000+0  42235-4 0  9993,2 58867  43.0085 250.3063 0001532 282.3917  77.6763 15.27565754 99526,15.27565754,0.0001532,LEO
58868,STARLINK-31196,2024,94.27,-1.0,+,43.0,Active,0,LEO,USA,USA,Unknown,Unknown,Unknown,1 58868U 24019R   25306.15454409  .00002634  00000+0  10516-3 0  9999,2 58868  42.9970 249.5082 0000354 308.4809  51.6011 15.27595534 99550,15.27595534,3.54e-05,LEO
58869,STARLINK-31203,2024,94.27,-1.0,+,43.0,Active,0,LEO,USA,USA,Unknown,Unknown,Unknown,1 58869U 24019S   25306.11778616  .00009658  00000+0  36002-3 0  9996,2 58869  43.0010 245.7451 0001509 273.7820  86.2859 15.27580685 99618,15.27580685,0.0001509,LEO
58870,STARLINK-31201,2024,94.27,-1.0,+,43.0,Active,0,LEO,USA,USA,Unknown,Unknown,Unknown,1 58870U 24019T   25305.90187513 -.00000441  00000+0 -64980-5 0  9995,2 58870  43.0070 250.2031 0001509 280.7034  79.3647 15.27565632 99529,15.27565632,0.0001509,LEO
58871,STARLINK-31214,2024,94.27,-1.0,+,43.0,Active,0,LEO,USA,USA,Unknown,Unknown,Unknown,1 58871U 24019U   25306.11087870  .00001678  00000+0  70510-4 0  9991,2 58871  43.0054 249.1775 0001843 282.6967  77.3679 15.27568948 99550,15.27568948,0.0001843,LEO
58872,STARLINK-31215,2024,94.27,-1.0,+,43.0,Active,0,LEO,USA,USA,Unknown,Unknown,Unknown,1 58872U 24019V   25306.11344076 -.00002022  00000+0 -63908-4 0  9995,2 58872  43.0049 249.2091 0001537 272.1084  87.9591 15.27599472 99557,15.27599472,0.0001537,LEO
58873,STARLINK-31177,2024,94.27,-1.0,+,43.0,Active,0,LEO,USA,USA,Unknown,Unknown,Unknown,1 58873U 24019W   25306.10831570 -.00001694  00000+0 -52087-4 0  9995,2 58873  43.0030 249.1636 0001059 242.4688 117.6056 15.27551529 99571,15.27551529,0.0001059,LEO
58874,STARLINK-30945,2024,94.27,-1.0,+,43.0,Active,0,LEO,USA,USA,Unknown,Unknown,Unknown,1 58874U 24019X   25305.88017675 -.00000478  00000+0 -78377-5 0  9992,2 58874  43.0034 250.8774 0001161 288.7843  71.2883 15.27569576 99538,15.27569576,0.0001161,LEO
58875,STARLINK-31212,2024,94.27,-1.0,+,43.0,Active,0,LEO,USA,USA,Unknown,Unknown,Unknown,1 58875U 24019Y   25305.90573012  .00000391  00000+0  23756-4 0  9990,2 58875  43.0078 250.2305 0001377 275.2636  84.8058 15.27564653 99525,15.27564653,0.0001377,LEO
58876,STARLINK-31306,2024,94.11,-1.0,+,53.16,Active,0,LEO,USA,USA,Unknown,Unknown,Unknown,1 58876U 24020A   25306.38558167  .00004726  00000+0  17160-3 0  9997,2 58876  53.1589 193.4993 0000842  95.8262 264.2834 15.30199390 99761,15.3019939,8.42e-05,LEO
58877,STARLINK-31326,2024,94.11,-1.0,+,53.16,Active,0,LEO,USA,USA,Unknown,Unknown,Unknown,1 58877U 24020B   25305.98431326  .00003392  00000+0  12667-3 0  9995,2 58877  53.1612 195.9647 0001354  81.6046 278.5108 15.30185031 98515,15.30185031,0.0001354,LEO
58878,STARLINK-31300,2024,94.11,-1.0,+,53.16,Active,0,LEO,USA,USA,Unknown,Unknown,Unknown,1 58878U 24020C   25306.38875154  .00003082  00000+0  11617-3 0  9992,2 58878  53.1610 193.5191 0001466  85.3139 274.8029 15.30192518 98586,15.30192518,0.0001466,LEO
58879,STARLINK-31296,2024,94.11,-1.0,+,53.16,Active,0,LEO,USA,USA,Unknown,Unknown,Unknown,1 58879U 24020D   25306.32445115 -.00001091  00000+0 -24723-4 0  9990,2 58879  53.1581 168.2529 0001333  97.6625 262.4527 15.30179847 98932,15.30179847,0.0001333,LEO
58880,STARLINK-31328,2024,94.11,-1.0,+,53.16,Active,0,LEO,USA,USA,Unknown,Unknown,Unknown,1 58880U 24020E   25305.93149987  .00000499  00000+0  28986-4 0  9990,2 58880  53.1587 180.6349 0001262  80.2057 279.9086 15.30197991 98726,15.30197991,0.0001262,LEO
58881,STARLINK-31260,2024,94.11,-1.0,+,53.16,Active,0,LEO,USA,USA,Unknown,Unknown,Unknown,1 58881U 24020F   25306.39614133  .00002046  00000+0  81209-4 0  9999,2 58881  53.1606 193.5632 0001914  75.6399 284.4815 15.30189445 98588,15.30189445,0.0001914,LEO
58882,STARLINK-31323,2024,94.11,-1.0,+,53.16,Active,0,LEO,USA,USA,Unknown,Unknown,Unknown,1 58882U 24020G   25306.39930500  .00002357  00000+0  91728-4 0  9991,2 58882  53.1604 193.5812 0001598  92.0718 268.0466 15.30186489 98588,15.30186489,0.0001598,LEO
58883,STARLINK-31209,2024,94.11,-1.0,+,53.16,Active,0,LEO,USA,USA,Unknown,Unknown,Unknown,1 58883U 24020H   25306.40248150 -.00001320  00000+0 -32481-4 0  9999,2 58883  53.1600 193.6072 0001169 105.8414 254.2715 15.30172240 98588,15.3017224,0.0001169,LEO
58884,STARLINK-31315,2024,93.93,-1.0,+,53.16,Active,0,LEO,USA,USA,Unknown,Unknown,Unknown,1 58884U 24020J   25306.31952220 -.00078917  00000+0 -24099-2 0  9990,2 58884  53.1568 168.0945 0000848 236.8575 123.2346 15.33595190 98933,15.3359519,8.48e-05,LEO
58885,STARLINK-31318,2024,94.11,-1.0,+,53.16,Active,0,LEO,USA,USA,Unknown,Unknown,Unknown,1 58885U 24020K   25304.74016627 -.00000348  00000+0  37439-6 0  9996,2 58885  53.1602 201.7005 0001595 103.2996 256.8182 15.30182487 98321,15.30182487,0.0001595,LEO
58886,STARLINK-31320,2024,94.11,-1.0,+,53.16,Active,0,LEO,USA,USA,Unknown,Unknown,Unknown,1 58886U 24020L   25306.01375013  .00000874  00000+0  41639-4 0  9994,2 58886  53.1600 195.4422 0001144  72.7353 287.3773 15.30184853 98525,15.30184853,0.0001144,LEO
58887,STARLINK-31321,2024,94.11,-1.0,+,53.16,Active,0,LEO,USA,USA,Unknown,Unknown,Unknown,1 58887U 24020M   25306.40882356 -.00000495  00000+0 -45841-5 0  9992,2 58887  53.1607 193.6408 0001736  91.2066 268.9133 15.30172051 99748,15.30172051,0.0001736,LEO
58889,STARLINK-31007,2024,94.11,-1.0,+,53.16,Active,0,LEO,USA,USA,Unknown,Unknown,Unknown,1 58889U 24020P   25306.41196926  .00001497  00000+0  62686-4 0  9992,2 58889  53.1605 193.6591 0001390  96.4547 263.6612 15.30183226 98589,15.30183226,0.000139,LEO
